[{"OBJECT_NAME":"STARLINK-32085","OBJECT_ID":"2024-086D","EPOCH":"2026-03-09T23:05:53.971008","MEAN_MOTION":15.27586939,"ECCENTRICITY":0.00023655,"INCLINATION":43.0103,"RA_OF_ASC_NODE":58.3789,"ARG_OF_PERICENTER":279.7151,"MEAN_ANOMALY":80.3434,"EPHEMERIS_TYPE":0,"CLASSIFICATION_TYPE":"U","NORAD_CAT_ID":59685,"ELEMENT_SET_NO":999,"REV_AT_EPOCH":10415,"BSTAR":1.0263909e-5,"MEAN_MOTION_DOT":2.0e-7,"MEAN_MOTION_DDOT":0},{"OBJECT_NAME":"THORAD AGENA D DEB","OBJECT_ID":"1969-082CP","EPOCH":"2026-03-09T22:51:31.947840","MEAN_MOTION":15.31252047,"ECCENTRICITY":0.00108961,"INCLINATION":69.8927,"RA_OF_ASC_NODE":265.8646,"ARG_OF_PERICENTER":335.0972,"MEAN_ANOMALY":24.9676,"EPHEMERIS_TYPE":0,"CLASSIFICATION_TYPE":"U","NORAD_CAT_ID":4133,"ELEMENT_SET_NO":999,"REV_AT_EPOCH":97550,"BSTAR":0.0018489552,"MEAN_MOTION_DOT":0.00056347,"MEAN_MOTION_DDOT":0}]
